{
    "links": {
        "self": "http://www.neowsapp.com/rest/v1/neo/3738914?api_key=iIulBulltgU6a56xZRHN4H3l9WmuAYTsLGpBGhQ2"
    },
    "id": "3738914",
    "neo_reference_id": "3738914",
    "name": "(2015 YD1)",
    "designation": "2015 YD1",
    "nasa_jpl_url": "http://ssd.jpl.nasa.gov/sbdb.cgi?sstr=3738914",
    "absolute_magnitude_h": 24.2,
    "estimated_diameter": {
        "kilometers": {
            "estimated_diameter_min": 0.0384197891,
            "estimated_diameter_max": 0.0859092601
        },
        "meters": {
            "estimated_diameter_min": 38.4197891064,
            "estimated_diameter_max": 85.9092601232
        },
        "miles": {
            "estimated_diameter_min": 0.0238729428,
            "estimated_diameter_max": 0.0533815229
        },
        "feet": {
            "estimated_diameter_min": 126.0491808919,
            "estimated_diameter_max": 281.8545369825
        }
    },
    "is_potentially_hazardous_asteroid": false,
    "close_approach_data": [
        {
            "close_approach_date": "2015-12-21",
            "close_approach_date_full": "2015-Dec-21 05:27",
            "epoch_date_close_approach": 1450675620000,
            "relative_velocity": {
                "kilometers_per_second": "7.8589351932",
                "kilometers_per_hour": "28292.1666955246",
                "miles_per_hour": "17579.6521336719"
            },
            "miss_distance": {
                "astronomical": "0.0620639475",
                "lunar": "24.1428755775",
                "kilometers": "9284634.349791825",
                "miles": "5769204.263404185"
            },
            "orbiting_body": "Earth"
        }
    ],
    "orbital_data": {
        "orbit_id": "12",
        "orbit_determination_date": "2017-04-06 08:29:42",
        "first_observation_date": "2015-12-18",
        "last_observation_date": "2016-01-03",
        "data_arc_in_days": 16,
        "observations_used": 71,
        "orbit_uncertainty": "8",
        "minimum_orbit_intersection": ".0592693",
        "jupiter_tisserand_invariant": "3.354",
        "epoch_osculation": "2457377.5",
        "eccentricity": ".5484856086949698",
        "semi_major_axis": "2.310621895787952",
        "inclination": "8.545966069972696",
        "ascending_node_longitude": "266.2160519802302",
        "orbital_period": "1282.896893679812",
        "perihelion_distance": "1.043279038812772",
        "perihelion_argument": "179.5603853373579",
        "aphelion_distance": "3.577964752763132",
        "perihelion_time": "2457375.885128387628",
        "mean_anomaly": ".4531570567502018",
        "mean_motion": ".280614912837921",
        "equinox": "J2000",
        "orbit_class": {
            "orbit_class_type": "AMO",
            "orbit_class_description": "Near-Earth asteroid orbits similar to that of 1221 Amor",
            "orbit_class_range": "1.017 AU < q (perihelion) < 1.3 AU"
        }
    },
    "is_sentry_object": false
}